GOLIAT
1 38085U 12006J   12355.13535008  .00063170  00000-0  14279-2 0  7051
2 38085 069.4862 247.3787 0686048 011.0589 350.5256 14.28744208 43985
HORYU-2
1 38340U 12025D   12354.89858278  .00001538  00000-0  26171-3 0  2897
2 38340 098.1957 295.2780 0013783 100.6241 259.6549 14.70483757 31761
RS-40
1 38736U 12041D   12355.13001425  .00000010  00000-0  00000 0 0  1382
2 38736 082.4791 266.7712 0019420 002.5230 357.5948 12.42648887 18009
PROITERES
1 38756U 12047B   12355.46022101  .00000597  00000-0  98804-4 0  3375
2 38756 098.2743 063.0859 0011966 320.4999 039.5343 14.74016545 15060
AENEAS
1 38760U 0        12354.54971855  .00004392  00000-0  40463-3 0 00183
2 38760 064.6747 104.3800 0216659 262.6664 094.9825 14.79857661002369
CSSWE-D
1 38761U 0        12354.55100875  .00003655  00000-0  33900-3 0 00180
2 38761 064.6741 104.3900 0218383 262.6531 094.9704 14.79693633002389
CXBN-E
1 38762U 0        12354.54574126  .00004268  00000-0  39212-3 0 00176
2 38762 064.6740 104.3745 0218013 262.4335 095.1974 14.79821558002455
OBJECT F
1 38763U 0        12354.48039500  .00003422  00000-0  31788-3 0 00184
2 38763 064.6732 104.5792 0218697 262.7028 094.9169 14.79719629002381
CINEMA-G
1 38764U 0        12354.54639889  .00003590  00000-0  33273-3 0 00163
2 38764 064.6729 104.3603 0218353 262.7456 094.8781 14.79762851002352
CP5
1 38765U 0        12354.40578137  .00004349  00000-0  39908-3 0 00172
2 38765 064.6742 104.7477 0217486 262.4776 095.1598 14.79907854002331
RAIKO
1 38852U 98067CN  12355.21985954  .00042887  00000-0  58697-3 0   825
2 38852 051.6488 275.8700 0018038 059.8039 300.4735 15.56785346 11849
FITSAT 1
1 38853U 98067CP  12355.19406699  .00051828  00000-0  68089-3 0   794
2 38853 051.6507 275.7018 0015435 075.7800 284.4885 15.57848980 11891
TechEdSat
1 38854U 98067CQ  12355.20340013  .00074038  00000-0  88408-3 0   889
2 38854 051.6464 275.0140 0015647 081.6445 278.6316 15.60214634 11902
F 1
1 38855U 98067CR  12355.78658609  .00068938  00000-0  82882-3 0   923
2 38855 051.6437 272.1539 0015825 080.5116 279.8185 15.60022689 11885
WeWish
1 38856U 98067CS  12355.16716114  .00130784  00000-0  12786-2 0  1051
2 38856 051.6452 274.0145 0017616 075.8657 284.4294 15.65036735 11801
